CCSDS_OMM_VERS,COMMENT,CREATION_DATE,ORIGINATOR,OBJECT_NAME,OBJECT_ID,CENTER_NAME,REF_FRAME,TIME_SYSTEM,MEAN_ELEMENT_THEORY,EPOCH,MEAN_MOTION,ECCENTRICITY,INCLINATION,RA_OF_ASC_NODE,ARG_OF_PERICENTER,MEAN_ANOMALY,EPHEMERIS_TYPE,CLASSIFICATION_TYPE,NORAD_CAT_ID,ELEMENT_SET_NO,REV_AT_EPOCH,BSTAR,MEAN_MOTION_DOT,MEAN_MOTION_DDOT,SEMIMAJOR_AXIS,PERIOD,APOAPSIS,PERIAPSIS,OBJECT_TYPE,RCS_SIZE,COUNTRY_CODE,LAUNCH_DATE,SITE,DECAY_DATE,FILE,GP_ID,TLE_LINE0,TLE_LINE1,TLE_LINE2
2,GENERATED VIA SPACE-TRACK.ORG API,2007-08-04T16:54:13,18 SPCS,JCSAT 2,1990-001B,EARTH,TEME,UTC,SGP4,2007-08-04T06:13:54.807168,0.98536953,0.0061232,5.5585,90.5362,130.1337,230.4503,0,U,20402,999,4742,0.0001,1e-08,0,42658.217,1461.38,36541.286,36018.877,PAYLOAD,MEDIUM,JPN,1990-01-01,AFETR,,434177,62644584,0 JCSAT 2,1 20402U 90001B   07216.25966212  .00000001  00000-0  10000-3 0  9992,2 20402 005.5585 090.5362 0061232 130.1337 230.4503 00.98536953 47427
2,GENERATED VIA SPACE-TRACK.ORG API,2007-08-08T10:11:33,18 SPCS,JCSAT 2,1990-001B,EARTH,TEME,UTC,SGP4,2007-08-06T06:56:17.746656,0.98537885,0.0061199,5.5636,90.4943,130.2122,230.3364,0,U,20402,999,4744,0.0001,-5.3e-07,0,42657.948,1461.366,36540.875,36018.75,PAYLOAD,MEDIUM,JPN,1990-01-01,AFETR,,435717,62692749,0 JCSAT 2,1 20402U 90001B   07218.28909429 -.00000053 +00000-0 +10000-3 0  9992,2 20402 005.5636 090.4943 0061199 130.2122 230.3364 00.98537885047444
2,GENERATED VIA SPACE-TRACK.ORG API,2007-08-07T01:11:50,18 SPCS,JCSAT 2,1990-001B,EARTH,TEME,UTC,SGP4,2007-08-06T06:56:17.962656,0.98537893,0.0061234,5.5636,90.4943,130.2315,230.3184,0,U,20402,999,4744,0.0001,-5.3e-07,0,42657.945,1461.366,36541.022,36018.599,PAYLOAD,MEDIUM,JPN,1990-01-01,AFETR,,435126,62672901,0 JCSAT 2,1 20402U 90001B   07218.28909679 -.00000053  00000-0  10000-3 0  9999,2 20402 005.5636 090.4943 0061234 130.2315 230.3184 00.98537893 47447
2,GENERATED VIA SPACE-TRACK.ORG API,2007-08-07T10:13:10,18 SPCS,JCSAT 2,1990-001B,EARTH,TEME,UTC,SGP4,2007-08-06T06:56:17.962656,0.98537893,0.0061234,5.5636,90.4943,130.2315,230.3184,0,U,20402,999,4744,0.0001,-5.3e-07,0,42657.945,1461.366,36541.022,36018.599,PAYLOAD,MEDIUM,JPN,1990-01-01,AFETR,,435311,62679454,0 JCSAT 2,1 20402U 90001B   07218.28909679 -.00000053 +00000-0 +10000-3 0  9999,2 20402 005.5636 090.4943 0061234 130.2315 230.3184 00.98537893047447
2,GENERATED VIA SPACE-TRACK.ORG API,2007-08-10T16:11:16,18 SPCS,JCSAT 2,1990-001B,EARTH,TEME,UTC,SGP4,2007-08-08T07:38:43.061279,0.9853877,0.0061115,5.5689,90.4531,130.2484,230.2813,0,U,20402,999,4746,0.0001,-1.16e-06,0,42657.692,1461.353,36540.26,36018.855,PAYLOAD,MEDIUM,JPN,1990-01-01,AFETR,,436626,62720173,0 JCSAT 2,1 20402U 90001B   07220.31855395 -.00000116 +00000-0 +10000-3 0  9991,2 20402 005.5689 090.4531 0061115 130.2484 230.2813 00.98538770047468
2,GENERATED VIA SPACE-TRACK.ORG API,2007-08-09T07:23:18,18 SPCS,JCSAT 2,1990-001B,EARTH,TEME,UTC,SGP4,2007-08-08T07:38:43.615968,0.98538783,0.006114,5.5688,90.4531,130.2708,230.2618,0,U,20402,999,4746,0.0001,-1.16e-06,0,42657.688,1461.353,36540.363,36018.744,PAYLOAD,MEDIUM,JPN,1990-01-01,AFETR,,435990,62699606,0 JCSAT 2,1 20402U 90001B   07220.31856037 -.00000116  00000-0  10000-3 0  9995,2 20402 005.5688 090.4531 0061140 130.2708 230.2618 00.98538783 47461
2,GENERATED VIA SPACE-TRACK.ORG API,2007-08-11T13:11:16,18 SPCS,JCSAT 2,1990-001B,EARTH,TEME,UTC,SGP4,2007-08-09T07:59:59.762111,0.98539139,0.0061106,5.5715,90.4331,130.2754,230.263,0,U,20402,999,4747,0.0001,-1.45e-06,0,42657.586,1461.348,36540.114,36018.787,PAYLOAD,MEDIUM,JPN,1990-01-01,AFETR,,436958,62733786,0 JCSAT 2,1 20402U 90001B   07221.33333058 -.00000145 +00000-0 +10000-3 0  9993,2 20402 005.5715 090.4331 0061106 130.2754 230.2630 00.98539139047474
2,GENERATED VIA SPACE-TRACK.ORG API,2007-08-11T17:00:48,18 SPCS,JCSAT 2,1990-001B,EARTH,TEME,UTC,SGP4,2007-08-11T08:42:39.671424,0.98539624,0.0061164,5.5766,90.3927,130.4637,230.1204,0,U,20402,999,4749,0.0001,-1.92e-06,0,42657.446,1461.341,36540.221,36018.401,PAYLOAD,MEDIUM,JPN,1990-01-01,AFETR,,437029,62738400,0 JCSAT 2,1 20402U 90001B   07223.36295916 -.00000192  00000-0  10000-3 0  9990,2 20402 005.5766 090.3927 0061164 130.4637 230.1204 00.98539624 47493
2,GENERATED VIA SPACE-TRACK.ORG API,2007-08-14T00:52:55,18 SPCS,JCSAT 2,1990-001B,EARTH,TEME,UTC,SGP4,2007-08-13T09:25:22.611648,0.98539697,0.0061531,5.5817,90.3538,130.6391,229.9994,0,U,20402,999,4751,0.0001,-2.13e-06,0,42657.425,1461.339,36541.765,36016.814,PAYLOAD,MEDIUM,JPN,1990-01-01,AFETR,,437825,62766798,0 JCSAT 2,1 20402U 90001B   07225.39262282 -.00000213  00000-0  10000-3 0  9999,2 20402 005.5817 090.3538 0061531 130.6391 229.9994 00.98539697 47510
2,GENERATED VIA SPACE-TRACK.ORG API,2007-08-16T01:24:53,18 SPCS,JCSAT 2,1990-001B,EARTH,TEME,UTC,SGP4,2007-08-15T10:08:02.623775,0.98539434,0.0061867,5.5867,90.3143,130.767,229.9151,0,U,20402,999,4753,0.0001,-2.1e-06,0,42657.501,1461.343,36543.275,36015.456,PAYLOAD,MEDIUM,JPN,1990-01-01,AFETR,,438599,62792978,0 JCSAT 2,1 20402U 90001B   07227.42225259 -.00000210  00000-0  10000-3 0  9995,2 20402 005.5867 090.3143 0061867 130.7670 229.9151 00.98539434 47536
2,GENERATED VIA SPACE-TRACK.ORG API,2007-08-19T00:59:52,18 SPCS,JCSAT 2,1990-001B,EARTH,TEME,UTC,SGP4,2007-08-18T11:11:47.563008,0.98538411,0.0061389,5.5944,90.2538,130.5373,230.1464,0,U,20402,999,4756,0.0001,-1.68e-06,0,42657.796,1461.359,36541.533,36017.789,PAYLOAD,MEDIUM,JPN,1990-01-01,AFETR,,439811,62833735,0 JCSAT 2,1 20402U 90001B   07230.46652272 -.00000168  00000-0  10000-3 0  9994,2 20402 005.5944 090.2538 0061389 130.5373 230.1464 00.98538411 47564
2,GENERATED VIA SPACE-TRACK.ORG API,2007-08-20T17:01:52,18 SPCS,JCSAT 2,1990-001B,EARTH,TEME,UTC,SGP4,2007-08-19T11:32:59.763264,0.98538193,0.0061551,5.5969,90.2342,130.713,229.9657,0,U,20402,999,4757,0.0001,-1.48e-06,0,42657.859,1461.362,36542.287,36017.16,PAYLOAD,MEDIUM,JPN,1990-01-01,AFETR,,440502,62858534,0 JCSAT 2,1 20402U 90001B   07231.48124726 -.00000148  00000-0  10000-3 0  9993,2 20402 005.5969 090.2342 0061551 130.7130 229.9657 00.98538193 47576
2,GENERATED VIA SPACE-TRACK.ORG API,2007-08-22T09:11:26,18 SPCS,JCSAT 2,1990-001B,EARTH,TEME,UTC,SGP4,2007-08-20T11:54:11.985120,0.98537859,0.0061614,5.5994,90.2134,130.8077,229.8611,0,U,20402,999,4758,0.0001,-1.25e-06,0,42657.955,1461.367,36542.653,36016.987,PAYLOAD,MEDIUM,JPN,1990-01-01,AFETR,,441107,62879150,0 JCSAT 2,1 20402U 90001B   07232.49597205 -.00000125 +00000-0 +10000-3 0  9996,2 20402 005.5994 090.2134 0061614 130.8077 229.8611 00.98537859047582
2,GENERATED VIA SPACE-TRACK.ORG API,2007-08-23T09:11:27,18 SPCS,JCSAT 2,1990-001B,EARTH,TEME,UTC,SGP4,2007-08-21T12:15:24.193151,0.98537495,0.0061442,5.6018,90.1927,130.8511,229.8064,0,U,20402,999,4759,0.0001,-1.02e-06,0,42658.06,1461.372,36542.025,36017.825,PAYLOAD,MEDIUM,JPN,1990-01-01,AFETR,,441456,62892354,0 JCSAT 2,1 20402U 90001B   07233.51069668 -.00000102 +00000-0 +10000-3 0  9992,2 20402 005.6018 090.1927 0061442 130.8511 229.8064 00.98537495047590
2,GENERATED VIA SPACE-TRACK.ORG API,2007-08-22T06:03:36,18 SPCS,JCSAT 2,1990-001B,EARTH,TEME,UTC,SGP4,2007-08-21T12:15:25.165151,0.98537494,0.0061473,5.6019,90.193,130.8489,229.812,0,U,20402,999,4759,0.0001,-1.02e-06,0,42658.06,1461.372,36542.157,36017.694,PAYLOAD,MEDIUM,JPN,1990-01-01,AFETR,,441081,62875194,0 JCSAT 2,1 20402U 90001B   07233.51070793 -.00000102  00000-0  10000-3 0  9993,2 20402 005.6019 090.1930 0061473 130.8489 229.8120 00.98537494 47595
2,GENERATED VIA SPACE-TRACK.ORG API,2007-08-24T13:11:26,18 SPCS,JCSAT 2,1990-001B,EARTH,TEME,UTC,SGP4,2007-08-22T12:36:39.799296,0.98537144,0.0061377,5.6044,90.1722,130.8724,229.785,0,U,20402,999,4760,0.0001,-7.9e-07,0,42658.161,1461.377,36541.849,36018.203,PAYLOAD,MEDIUM,JPN,1990-01-01,AFETR,,441865,62906611,0 JCSAT 2,1 20402U 90001B   07234.52546064 -.00000079 +00000-0 +10000-3 0  9997,2 20402 005.6044 090.1722 0061377 130.8724 229.7850 00.98537144047600
2,GENERATED VIA SPACE-TRACK.ORG API,2007-08-25T14:11:16,18 SPCS,JCSAT 2,1990-001B,EARTH,TEME,UTC,SGP4,2007-08-23T12:57:56.862144,0.98536847,0.006141,5.6067,90.1512,131.0122,229.6514,0,U,20402,999,4761,0.0001,-5.6e-07,0,42658.247,1461.382,36542.076,36018.148,PAYLOAD,MEDIUM,JPN,1990-01-01,AFETR,,442191,62920025,0 JCSAT 2,1 20402U 90001B   07235.54024146 -.00000056 +00000-0 +10000-3 0  9997,2 20402 005.6067 090.1512 0061410 131.0122 229.6514 00.98536847047611
2,GENERATED VIA SPACE-TRACK.ORG API,2007-08-24T09:18:25,18 SPCS,JCSAT 2,1990-001B,EARTH,TEME,UTC,SGP4,2007-08-23T12:57:57.365855,0.98536842,0.0061443,5.6068,90.152,131.0019,229.6625,0,U,20402,999,4761,0.0001,-5.6e-07,0,42658.249,1461.382,36542.219,36018.009,PAYLOAD,MEDIUM,JPN,1990-01-01,AFETR,,441809,62902180,0 JCSAT 2,1 20402U 90001B   07235.54024729 -.00000056  00000-0  10000-3 0  9994,2 20402 005.6068 090.1520 0061443 131.0019 229.6625 00.98536842 47610
2,GENERATED VIA SPACE-TRACK.ORG API,2007-08-26T09:11:16,18 SPCS,JCSAT 2,1990-001B,EARTH,TEME,UTC,SGP4,2007-08-24T13:19:16.915296,0.98536566,0.0061415,5.6093,90.1315,131.0479,229.6299,0,U,20402,999,4762,0.0001,-3.4e-07,0,42658.328,1461.386,36542.179,36018.207,PAYLOAD,MEDIUM,JPN,1990-01-01,AFETR,,442469,62932596,0 JCSAT 2,1 20402U 90001B   07236.55505689 -.00000034 +00000-0 +10000-3 0  9991,2 20402 005.6093 090.1315 0061415 131.0479 229.6299 00.98536566047620
2,GENERATED VIA SPACE-TRACK.ORG API,2007-08-26T09:26:21,18 SPCS,JCSAT 2,1990-001B,EARTH,TEME,UTC,SGP4,2007-08-25T13:40:39.505151,0.98536376,0.0061616,5.6119,90.1125,131.1247,229.5775,0,U,20402,999,4763,0.0001,-1.5e-07,0,42658.383,1461.389,36543.092,36017.404,PAYLOAD,MEDIUM,JPN,1990-01-01,AFETR,,442483,62936326,0 JCSAT 2,1 20402U 90001B   07237.56990168 -.00000015  00000-0  10000-3 0  9992,2 20402 005.6119 090.1125 0061616 131.1247 229.5775 00.98536376 47633
